NORAD_CAT_ID,OBJECT_NAME,OBJECT_TYPE,EPOCH,MEAN_MOTION,ECCENTRICITY,INCLINATION,RA_OF_ASC_NODE,ARG_OF_PERICENTER,MEAN_ANOMALY,BSTAR,MEAN_MOTION_DOT,MEAN_MOTION_DDOT,TLE_LINE0,TLE_LINE1,TLE_LINE2,SEMIMAJOR_AXIS,PERIOD,APOGEE,PERIGEE,DECAYED
52089.0,STARLINK-3722,PAYLOAD,2023-10-06 18:58:25,15.08840599,0.0001389,53.2154,101.586,94.8262,265.2889,5.5036e-05,5.88e-06,0.0,0 STARLINK-3722,1 52089U 22029B   23279.79056838  .00000588  00000-0  55036-4 0  9992,2 52089  53.2154 101.5860 0001389  94.8262 265.2889 15.08840599 87069,6917.879,95.438,540.704,538.783,0.0
52089.0,STARLINK-3722,PAYLOAD,2023-10-07 12:27:39,15.08836808,0.0001366,53.2156,98.3148,98.1813,261.9334,7.3696e-05,8.85e-06,0.0,0 STARLINK-3722,1 52089U 22029B   23280.51921132  .00000885  00000-0  73696-4 0  9994,2 52089  53.2156  98.3148 0001366  98.1813 261.9334 15.08836808 87175,6917.89,95.438,540.7,538.81,0.0
52089.0,STARLINK-3722,PAYLOAD,2023-10-07 18:49:12,15.08842155,0.0001307,53.2157,97.127,92.6939,267.4203,0.00015539,2.186e-05,0.0,0 STARLINK-3722,1 52089U 22029B   23280.78416938  .00002186  00000-0  15539-3 0  9993,2 52089  53.2157  97.1270 0001307  92.6939 267.4203 15.08842155 87215,6917.874,95.437,540.643,538.835,0.0
52089.0,STARLINK-3722,PAYLOAD,2023-10-08 04:21:31,15.08839435,0.0001264,53.2164,95.3432,89.4556,270.6581,1.6095e-05,-3.2e-07,0.0,0 STARLINK-3722,1 52089U 22029B   23281.18161047 -.00000032  00000-0  16095-4 0  9994,2 52089  53.2164  95.3432 0001264  89.4556 270.6581 15.08839435 87272,6917.882,95.438,540.622,538.873,0.0
52089.0,STARLINK-3722,PAYLOAD,2023-10-08 12:18:27,15.08834291,0.0001314,53.2172,93.8576,94.1678,265.9464,7.139e-05,8.48e-06,0.0,0 STARLINK-3722,1 52089U 22029B   23281.51281537  .00000848  00000-0  71390-4 0  9991,2 52089  53.2172  93.8576 0001314  94.1678 265.9464 15.08834291 87325,6917.898,95.438,540.672,538.854,0.0
52089.0,STARLINK-3722,PAYLOAD,2023-10-08 20:15:22,15.08842857,0.0001454,53.2179,92.3708,95.9123,264.2035,0.00016697,2.371e-05,0.0,0 STARLINK-3722,1 52089U 22029B   23281.84401169  .00002371  00000-0  16697-3 0  9993,2 52089  53.2179  92.3708 0001454  95.9123 264.2035 15.08842857 87370,6917.872,95.437,540.743,538.731,0.0
52089.0,STARLINK-3722,PAYLOAD,2023-10-09 12:09:14,15.08838267,0.0001405,53.2176,89.3966,91.771,268.3443,1.8662e-05,9e-08,0.0,0 STARLINK-3722,1 52089U 22029B   23282.50641374  .00000009  00000-0  18662-4 0  9992,2 52089  53.2176  89.3966 0001405  91.7710 268.3443 15.08838267 87470,6917.886,95.438,540.723,538.779,0.0
52089.0,STARLINK-3722,PAYLOAD,2023-10-09 18:30:46,15.08843225,0.0001492,53.219,88.2082,94.927,265.1893,0.00011592,1.558e-05,0.0,0 STARLINK-3722,1 52089U 22029B   23282.77137296  .00001558  00000-0  11592-3 0  9998,2 52089  53.2190  88.2082 0001492  94.9270 265.1893 15.08843225 87514,6917.871,95.437,540.768,538.703,0.0
52089.0,STARLINK-3722,PAYLOAD,2023-10-10 12:00:01,15.08841905,0.0001372,53.2174,84.9358,90.7408,269.3742,0.00011893,1.605e-05,0.0,0 STARLINK-3722,1 52089U 22029B   23283.50001188  .00001605  00000-0  11893-3 0  9997,2 52089  53.2174  84.9358 0001372  90.7408 269.3742 15.08841905 87623,6917.875,95.437,540.689,538.79,0.0
52089.0,STARLINK-3722,PAYLOAD,2023-10-10 18:21:33,15.08850748,0.0001359,53.2169,83.7456,90.5166,269.5981,0.00018995,2.737e-05,0.0,0 STARLINK-3722,1 52089U 22029B   23283.76496675  .00002737  00000-0  18995-3 0  9991,2 52089  53.2169  83.7456 0001359  90.5166 269.5981 15.08850748 87663,6917.848,95.437,540.653,538.772,0.0
52089.0,STARLINK-3722,PAYLOAD,2023-10-11 10:15:25,15.08833493,0.0001647,53.2176,80.7728,83.534,276.5839,-8.1551e-06,-4.18e-06,0.0,0 STARLINK-3722,1 52089U 22029B   23284.42737647 -.00000418  00000-0 -81551-5 0  9998,2 52089  53.2176  80.7728 0001647  83.5340 276.5839 15.08833493 87765,6917.9,95.438,540.905,538.626,0.0
52089.0,STARLINK-3722,PAYLOAD,2023-10-12 14:52:21,15.08849294,0.0001519,53.217,75.419,82.864,277.2525,0.00016382,2.321e-05,0.0,0 STARLINK-3722,1 52089U 22029B   23285.61969032  .00002321  00000-0  16382-3 0  9996,2 52089  53.2170  75.4190 0001519  82.8640 277.2525 15.08849294 87942,6917.852,95.437,540.768,538.666,0.0
52089.0,STARLINK-3722,PAYLOAD,2023-10-12 16:27:44,15.08852955,0.000155,53.2167,75.1207,89.6182,270.4987,0.00022728,3.332e-05,0.0,0 STARLINK-3722,1 52089U 22029B   23285.68592822  .00003332  00000-0  22728-3 0  9996,2 52089  53.2167  75.1207 0001550  89.6182 270.4987 15.08852955 87951,6917.841,95.437,540.778,538.634,0.0
52089.0,STARLINK-3722,PAYLOAD,2023-10-13 03:35:26,15.08846982,0.0001541,53.2154,73.04,82.8738,277.2429,0.00026266,3.895e-05,0.0,0 STARLINK-3722,1 52089U 22029B   23286.14961108  .00003895  00000-0  26266-3 0  9990,2 52089  53.2154  73.0400 0001541  82.8738 277.2429 15.08846982 88029,6917.859,95.437,540.79,538.658,0.0
52089.0,STARLINK-3722,PAYLOAD,2023-10-13 13:07:45,15.08840702,0.0001824,53.2177,71.2545,98.1613,261.9586,0.00024997,3.693e-05,0.0,0 STARLINK-3722,1 52089U 22029B   23286.54705544  .00003693  00000-0  24997-3 0  9999,2 52089  53.2177  71.2545 0001824  98.1613 261.9586 15.08840702 88084,6917.878,95.438,541.005,538.481,0.0
52089.0,STARLINK-3722,PAYLOAD,2023-10-13 14:43:08,15.08839833,0.0001847,53.2175,70.9573,96.8174,263.3029,0.00021264,3.098e-05,0.0,0 STARLINK-3722,1 52089U 22029B   23286.61329581  .00003098  00000-0  21264-3 0  9993,2 52089  53.2175  70.9573 0001847  96.8174 263.3029 15.08839833 88093,6917.881,95.438,541.024,538.468,0.0
52089.0,STARLINK-3722,PAYLOAD,2023-10-13 16:18:31,15.08842683,0.0001737,53.217,70.661,94.0074,266.1117,0.00021583,3.149e-05,0.0,0 STARLINK-3722,1 52089U 22029B   23286.67953461  .00003149  00000-0  21583-3 0  9990,2 52089  53.2170  70.6610 0001737  94.0074 266.1117 15.08842683 88102,6917.872,95.437,540.939,538.536,0.0
52089.0,STARLINK-3722,PAYLOAD,2023-10-14 12:58:32,15.08846348,0.0001721,53.2174,66.795,96.6735,263.4453,0.00016159,2.285e-05,0.0,0 STARLINK-3722,1 52089U 22029B   23287.54065105  .00002285  00000-0  16159-3 0  9999,2 52089  53.2174  66.7950 0001721  96.6735 263.4453 15.08846348 88233,6917.861,95.437,540.917,538.535,0.0
52089.0,STARLINK-3722,PAYLOAD,2023-10-14 16:09:18,15.08853254,0.0001414,53.2166,66.199,87.7289,272.3865,0.00017008,2.421e-05,0.0,0 STARLINK-3722,1 52089U 22029B   23287.67312706  .00002421  00000-0  17008-3 0  9991,2 52089  53.2166  66.1990 0001414  87.7289 272.3865 15.08853254 88258,6917.84,95.437,540.683,538.727,0.0
52089.0,STARLINK-3722,PAYLOAD,2023-10-15 12:49:20,15.08831369,0.0001471,53.2177,62.3342,98.4402,261.6757,-1.9834e-05,-6.04e-06,0.0,0 STARLINK-3722,1 52089U 22029B   23288.53425966 -.00000604  00000-0 -19834-4 0  9993,2 52089  53.2177  62.3342 0001471  98.4402 261.6757 15.08831369 88386,6917.907,95.438,540.789,538.754,0.0
52089.0,STARLINK-3722,PAYLOAD,2023-10-15 14:24:43,15.08832243,0.0001489,53.2177,62.0367,97.5738,262.5423,-9.7165e-07,-3.03e-06,0.0,0 STARLINK-3722,1 52089U 22029B   23288.60049975 -.00000303  00000-0 -97165-6 0  9994,2 52089  53.2177  62.0367 0001489  97.5738 262.5423 15.08832243 88394,6917.904,95.438,540.799,538.739,0.0
52089.0,STARLINK-3722,PAYLOAD,2023-10-15 16:00:06,15.08833511,0.0001439,53.2178,61.7387,90.1404,269.9753,2.2966e-06,-2.51e-06,0.0,0 STARLINK-3722,1 52089U 22029B   23288.66673960 -.00000251  00000-0  22966-5 0  9994,2 52089  53.2178  61.7387 0001439  90.1404 269.9753 15.08833511 88405,6917.9,95.438,540.761,538.77,0.0
52089.0,STARLINK-3722,PAYLOAD,2023-10-16 14:15:30,15.08844253,0.000131,53.2176,57.5764,87.452,272.6622,0.00016636,2.361e-05,0.0,0 STARLINK-3722,1 52089U 22029B   23289.59409861  .00002361  00000-0  16636-3 0  9992,2 52089  53.2176  57.5764 0001310  87.4520 272.6622 15.08844253 88547,6917.867,95.437,540.639,538.826,0.0
52089.0,STARLINK-3722,PAYLOAD,2023-10-17 12:30:54,15.0884008,0.0001321,53.2179,53.4146,94.6059,265.5084,0.00015689,2.21e-05,0.0,0 STARLINK-3722,1 52089U 22029B   23290.52146239  .00002210  00000-0  15689-3 0  9994,2 52089  53.2179  53.4146 0001321  94.6059 265.5084 15.08840080 88680,6917.88,95.438,540.659,538.831,0.0
52089.0,STARLINK-3722,PAYLOAD,2023-10-18 01:13:59,15.08846358,0.0001504,53.2179,51.0336,75.7101,284.4058,0.00021032,3.061e-05,0.0,0 STARLINK-3722,1 52089U 22029B   23291.05138040  .00003061  00000-0  21032-3 0  9998,2 52089  53.2179  51.0336 0001504  75.7101 284.4058 15.08846358 88760,6917.861,95.437,540.766,538.686,0.0
52089.0,STARLINK-3722,PAYLOAD,2023-10-18 12:21:41,15.08840694,0.0001925,53.2184,48.9532,85.9566,274.1646,7.7892e-05,9.52e-06,0.0,0 STARLINK-3722,1 52089U 22029B   23291.51506241  .00000952  00000-0  77892-4 0  9993,2 52089  53.2184  48.9532 0001925  85.9566 274.1646 15.08840694 88838,6917.878,95.438,541.075,538.412,0.0
52089.0,STARLINK-3722,PAYLOAD,2023-10-19 01:04:46,15.08848243,0.0001881,53.2192,46.5762,76.874,283.2462,0.00022621,3.315e-05,0.0,0 STARLINK-3722,1 52089U 22029B   23292.04498232  .00003315  00000-0  22621-3 0  9997,2 52089  53.2192  46.5762 0001881  76.8740 283.2462 15.08848243 88914,6917.855,95.437,541.021,538.419,0.0
52089.0,STARLINK-3722,PAYLOAD,2023-10-19 12:12:28,15.08854938,0.0001917,53.2187,44.4955,77.7124,282.4083,0.00049485,7.599e-05,0.0,0 STARLINK-3722,1 52089U 22029B   23292.50865832  .00007599  00000-0  49485-3 0  9997,2 52089  53.2187  44.4955 0001917  77.7124 282.4083 15.08854938 88980,6917.835,95.437,541.026,538.374,0.0
52089.0,STARLINK-3722,PAYLOAD,2023-10-20 12:03:15,15.08830444,0.0001364,53.2168,40.0344,92.3905,267.7244,-0.0001168,-2.146e-05,0.0,0 STARLINK-3722,1 52089U 22029B   23293.50226352 -.00002146  00000-0 -11680-3 0  9997,2 52089  53.2168  40.0344 0001364  92.3905 267.7244 15.08830444 89138,6917.91,95.438,540.718,538.831,0.0
52089.0,STARLINK-3722,PAYLOAD,2023-10-21 13:29:25,15.08847988,0.0001464,53.2171,35.2766,84.6366,275.4793,0.00071038,0.00011038,0.0,0 STARLINK-3722,1 52089U 22029B   23294.56210507  .00011038  00000-0  71038-3 0  9990,2 52089  53.2171  35.2766 0001464  84.6366 275.4793 15.08847988 89295,6917.856,95.437,540.734,538.708,0.0
